[{"OBJECT_NAME":"STARLINK-31255","OBJECT_ID":"2024-020T","EPOCH":"2026-03-09T23:23:51.669312","MEAN_MOTION":15.30184619,"ECCENTRICITY":0.00011119,"INCLINATION":53.1599,"RA_OF_ASC_NODE":321.1706,"ARG_OF_PERICENTER":109.4106,"MEAN_ANOMALY":250.7015,"EPHEMERIS_TYPE":0,"CLASSIFICATION_TYPE":"U","NORAD_CAT_ID":58893,"ELEMENT_SET_NO":999,"REV_AT_EPOCH":11811,"BSTAR":0.00040111818,"MEAN_MOTION_DOT":0.00011534,"MEAN_MOTION_DDOT":0},{"OBJECT_NAME":"DELTA 1 R\/B(1)","OBJECT_ID":"1977-118B","EPOCH":"2026-03-09T06:43:16.851360","MEAN_MOTION":13.47350406,"ECCENTRICITY":0.0814229,"INCLINATION":28.6551,"RA_OF_ASC_NODE":189.0759,"ARG_OF_PERICENTER":117.268,"MEAN_ANOMALY":251.3149,"EPHEMERIS_TYPE":0,"CLASSIFICATION_TYPE":"U","NORAD_CAT_ID":10517,"ELEMENT_SET_NO":999,"REV_AT_EPOCH":33790,"BSTAR":0.00036454259,"MEAN_MOTION_DOT":2.074e-5,"MEAN_MOTION_DDOT":0}]
